[{"OBJECT_NAME":"BANDWAGON-2 OBJECT D","OBJECT_ID":"2024-247D","EPOCH":"2026-03-09T12:32:33.670752","MEAN_MOTION":15.29076102,"ECCENTRICITY":0.00034883,"INCLINATION":44.9954,"RA_OF_ASC_NODE":115.671,"ARG_OF_PERICENTER":351.1453,"MEAN_ANOMALY":8.9368,"EPHEMERIS_TYPE":0,"CLASSIFICATION_TYPE":"U","NORAD_CAT_ID":62380,"ELEMENT_SET_NO":999,"REV_AT_EPOCH":6773,"BSTAR":0.00040119131,"MEAN_MOTION_DOT":0.00011259,"MEAN_MOTION_DDOT":0},{"OBJECT_NAME":"STARLINK-33783","OBJECT_ID":"2025-087R","EPOCH":"2026-03-09T17:37:33.595968","MEAN_MOTION":15.301996,"ECCENTRICITY":9.858e-5,"INCLINATION":53.1606,"RA_OF_ASC_NODE":219.5464,"ARG_OF_PERICENTER":98.3215,"MEAN_ANOMALY":261.7898,"EPHEMERIS_TYPE":0,"CLASSIFICATION_TYPE":"U","NORAD_CAT_ID":63712,"ELEMENT_SET_NO":999,"REV_AT_EPOCH":4920,"BSTAR":0.00060334206,"MEAN_MOTION_DOT":0.00017552,"MEAN_MOTION_DDOT":0}]
